[{"OBJECT_NAME":"IRIDIUM 105","OBJECT_ID":"2017-003E","EPOCH":"2026-03-09T19:29:46.518144","MEAN_MOTION":14.34401202,"ECCENTRICITY":0.0002251,"INCLINATION":86.3921,"RA_OF_ASC_NODE":98.4421,"ARG_OF_PERICENTER":92.6468,"MEAN_ANOMALY":267.4986,"EPHEMERIS_TYPE":0,"CLASSIFICATION_TYPE":"U","NORAD_CAT_ID":41921,"ELEMENT_SET_NO":999,"REV_AT_EPOCH":48089,"BSTAR":7.7196279e-5,"MEAN_MOTION_DOT":2.37e-6,"MEAN_MOTION_DDOT":0},{"OBJECT_NAME":"SS 2","OBJECT_ID":"1977-112E","EPOCH":"2026-03-09T21:50:48.413184","MEAN_MOTION":13.91112922,"ECCENTRICITY":0.05221989,"INCLINATION":63.3355,"RA_OF_ASC_NODE":261.535,"ARG_OF_PERICENTER":160.9398,"MEAN_ANOMALY":201.2029,"EPHEMERIS_TYPE":0,"CLASSIFICATION_TYPE":"U","NORAD_CAT_ID":10544,"ELEMENT_SET_NO":999,"REV_AT_EPOCH":33858,"BSTAR":0.00039726462,"MEAN_MOTION_DOT":1.41e-5,"MEAN_MOTION_DDOT":0}]
